1 48433U 21040F   21157.58334491 -.00025396  00000-0 -17697-3 0  9992
2 48433  53.0501  82.1609 0001027  93.0052 190.3872 15.73210114  1773
1 48433U 21040F   21157.83334491  .00019388  00000-0  14221-3 0  9992
2 48433  53.0503  80.9189 0001029  95.9336 164.1669 15.73200946  5131
1 48433U 21040F   21157.91667824 -.00018738  00000-0 -12928-3 0  9992
2 48433  53.0503  80.5055 0001005  90.9989 281.3351 15.73215690  1770
1 48433U 21040F   21158.58334491 -.00022391  00000-0 -15529-3 0  9997
2 48433  53.0499  77.1931 0001008  95.0277  95.2363 15.73233912  1826
1 48433U 21040F   21158.91667824 -.00015054  00000-0 -10301-3 0  9994
2 48433  53.0502  75.5381 0001228  92.5204 186.7275 15.73201156  5308
1 48433U 21040F   21159.50001157  .00069043  00000-0  49509-3 0  9998
2 48433  53.0506  72.6402 0001256  84.0643 260.8742 15.73064237  5409
1 48433U 21040F   21159.58334491  .00399060  00000-0  27463-2 0  9995
2 48433  53.0505  72.2257 0001100  82.8503  14.3385 15.72924483  1937
1 48433U 21040F   21159.91667824  .00000078  00000-0  49735-5 0  9998
2 48433  53.0506  70.5704 0001121  87.0085  98.9569 15.73213036  5461
1 48433U 21040F   21160.25001157 -.00048803  00000-0 -34480-3 0  9997
2 48433  53.0505  68.9157 0000978  81.5238 193.6222 15.73231780  5512
1 48433U 21040F   21160.66667824  .00066682  00000-0  47644-3 0  9990
2 48433  53.0497  66.8426 0001169 101.0627  15.2873 15.73162818  1894
1 48433U 21040F   21160.91667824 -.00526280  00000-0 -39516-2 0  9993
2 48433  53.0492  65.6013 0001150  85.8817   7.1268 15.73392909  1937
1 48433U 21040F   21161.25001157  .00040991  00000-0  29501-3 0  9994
2 48433  53.0505  63.9485 0001057  86.1813  95.7883 15.73199715  5673
1 48433U 21040F   21161.58334491  .00065611  00000-0  46827-3 0  9996
2 48433  53.0510  62.2905 0001059  97.8547 173.0836 15.73195429  1811
1 48433U 21040F   21161.83335648 -.00117851  00000-0 -84439-3 0  9996
2 48433  53.0513  61.0492 0001291  95.5905 152.1294 15.73269847  5763
1 48433U 21040F   21161.91667824 -.00091850  00000-0 -65577-3 0  9991
2 48433  53.0512  60.6359 0001287  91.9208 267.9954 15.73245682  1776
1 48433U 21040F   21162.16667824  .00065220  00000-0  46611-3 0  9997
2 48433  53.0510  59.3950 0001356  84.0926 252.5572 15.73165955  5823
1 48433U 21040F   21162.58334491 -.00000810  00000-0 -13533-5 0  9999
2 48433  53.0514  57.3227 0001120  95.4055  82.2753 15.73213619  1826
1 48433U 21040F   21162.91668981 -.00051458  00000-0 -36319-3 0  9999
2 48433  53.0506  55.6684 0001212  94.3726 172.5888 15.73277269  1766
1 48433U 21040F   21163.16667824  .00012151  00000-0  90752-4 0  9999
2 48433  53.0506  54.4273 0001013  86.2868 157.3850 15.73226243  5976
1 48433U 21040F   21163.58334491 -.00037892  00000-0 -26616-3 0  9994
2 48433  53.0508  52.3548 0001072 100.1573 344.7450 15.73250059  1879
1 48433U 21040F   21163.83334491 -.00112830  00000-0 -80841-3 0  9998
2 48433  53.0512  51.1127 0001165  96.2462 325.4035 15.73251126  6088
1 48433U 21040F   21163.91668981 -.00109895  00000-0 -78779-3 0  9995
2 48433  53.0510  50.7004 0001169  91.3292  82.6314 15.73227502  1769
1 48433U 21040F   21164.16667824  .00059215  00000-0  42459-3 0  9992
2 48433  53.0508  49.4592 0000970  84.3719  66.2411 15.73127981  6130
1 48433U 21040F   21164.50001157 -.00001243  00000-0 -44355-5 0  9990
2 48433  53.0513  47.8017 0001096  90.7985 148.4273 15.73213163  6188
1 48433U 21040F   21164.58334491 -.00000962  00000-0 -24315-5 0  9999
2 48433  53.0512  47.3875 0001105  91.2508 260.2161 15.73213656  1824
1 48433U 21040F   21164.91667824 -.00001563  00000-0 -67245-5 0  9992
2 48433  53.0505  45.7331 0000944  92.1627 348.5342 15.73198753  1772
1 48433U 21040F   21165.16667824  .00057008  00000-0  40796-3 0  9993
2 48433  53.0504  44.4916 0000882  84.1701 333.2364 15.73189595  6292
1 48433U 21040F   21165.50001157 -.00003427  00000-0 -19985-4 0  9997
2 48433  53.0505  42.8334 0000935 101.2925  45.0765 15.73225497  1860
1 48433U 21040F   21165.83334491 -.00601119  00000-0 -45472-2 0  9993
2 48433  53.0499  41.1767 0001265  96.9900 138.3200 15.73427404  6399
1 48433U 21040F   21165.91667824 -.00618988  00000-0 -47060-2 0  9998
2 48433  53.0496  40.7630 0001230  92.9579 254.6138 15.73360535  1927
1 48433U 21040F   21166.16667824  .00830075  00000-0  54691-2 0  9995
2 48433  53.0485  39.5204 0001272  93.3884 230.9481 15.72696882  6455
1 48433U 21040F   21166.50001157 -.00001383  00000-0 -54317-5 0  9996
2 48433  53.0481  37.8617 0001184 108.9867 304.0251 15.73213556  6504
1 48433U 21040F   21166.58334491 -.00001129  00000-0 -36231-5 0  9997
2 48433  53.0481  37.4475 0001184 109.1072  56.1460 15.73213437  2032
1 48433U 21040F   21166.91667824 -.00000467  00000-0  10917-5 0  9999
2 48433  53.0482  35.7934 0001179 108.2481 145.9684 15.73213058  2081
1 48433U 21040F   21167.50001157  .03319104  00000-0  20872-1 0  9996
2 48433  53.0482  32.8930 0001148 167.2852 152.7004 15.72582424  6663
1 48433U 21040F   21167.58334491  .05313140  00000-0  32616-1 0  9999
2 48433  53.0487  32.4796 0002309 208.1729 224.0250 15.72605122  2193
1 48433U 21040F   21167.66667824  .07574274  00000-0  43526-1 0  9998
2 48433  53.0492  32.0672 0004063 240.4469 303.9069 15.73330473  6685
1 48433U 21040F   21167.91667824 -.00088511  00000-0 -63106-3 0  9993
2 48433  53.0512  30.8294 0001136  85.5083  75.8991 15.73262945  1774
1 48433U 21040F   21168.16667824 -.00041915  00000-0 -29531-3 0  9992
2 48433  53.0510  29.5874 0001038  81.9869  56.1609 15.73228120  6763
1 48433U 21040F   21168.58334491  .00055109  00000-0  39523-3 0  9999
2 48433  53.0512  27.5158 0001228  96.9946 242.3501 15.73152722  1827
1 48433U 21040F   21168.91667824  .00017226  00000-0  12698-3 0  9997
2 48433  53.0511  25.8626 0001203  85.7762 342.4833 15.73182102  1883
1 48433U 21040F   21169.16668981 -.00088529  00000-0 -63201-3 0  9992
2 48433  53.0507  24.6200 0001215  82.4878 322.5376 15.73232612  6921
1 48433U 21040F   21169.58334491  .00047633  00000-0  34248-3 0  9992
2 48433  53.0514  22.5483 0001388  96.5486 149.5791 15.73154961  1823
1 48433U 21040F   21169.75001157 -.00005234  00000-0 -32893-4 0  9999
2 48433  53.0515  21.7217 0001368  90.5153  20.0665 15.73194216  1799
1 48433U 21040F   21170.58334491 -.00479618  00000-0 -35832-2 0  9997
2 48433  53.0524  17.5814 0001192  94.8084  58.1269 15.73379480  1925
1 48433U 21040F   21170.91668981  .00008627  00000-0  65711-4 0  9995
2 48433  53.0511  15.9275 0001288  82.4638 159.5312 15.73237262  1777
1 48433U 21040F   21171.41667824  .00067675  00000-0  48310-3 0  9999
2 48433  53.0508  13.4414 0000919  94.4358 100.9976 15.73177981  1859
1 48433U 21040F   21171.41667824  .00067675  00000-0  48310-3 0  9999
2 48433  53.0508  13.4414 0000919  94.4358 100.9976 15.73177981  7271
1 48433U 21040F   21172.50001157  .00052158  00000-0  37397-3 0  9994
2 48433  53.0509   8.0597 0001178  91.6342 122.9228 15.73181607  1801
1 48433U 21040F   21172.66668981 -.00013956  00000-0 -95077-4 0  9990
2 48433  53.0508   7.2328 0001178  86.6327 352.4529 15.73221764  7472
1 48433U 21040F   21173.16667824 -.00012462  00000-0 -84339-4 0  9991
2 48433  53.0502   4.7494 0001110  80.0278 312.4372 15.73240498  7557
1 48433U 21040F   21173.58334491 -.00581044  00000-0 -43817-2 0  9999
2 48433  53.0506   2.6778 0001279  89.8499 143.8146 15.73443755  1922
1 48433U 21040F   21173.83334491  .00437028  00000-0  30037-2 0  9997
2 48433  53.0508   1.4377 0001330  63.9964 146.5148 15.72844007  1964
1 48433U 21040F   21174.58334491 -.00000028  00000-0  42156-5 0  9995
2 48433  53.0509 357.7108 0001144  73.5108  66.8868 15.73213142  2082
1 48433U 21040F   21174.91668981 -.00004649  00000-0 -28696-4 0  9992
2 48433  53.0506 356.0556 0001138  73.1919 156.2346 15.73215034  2130
1 48433U 21040F   21175.16668981  .01481504  00000-0  96096-2 0  9995
2 48433  53.0503 354.8117 0000665 126.0998  80.1124 15.72832133  7863
1 48433U 21040F   21175.41668981  .05632398  00000-0  32807-1 0  9995
2 48433  53.0495 353.5685 0002894 229.7671 313.0548 15.73610149  7909
1 48433U 21040F   21176.58334491 -.00118717  00000-0 -85064-3 0  9996
2 48433  53.0502 347.7745 0001371  79.8331 234.6237 15.73271552  3704
1 48433U 21040F   21176.91667824  .00076300  00000-0  54380-3 0  9998
2 48433  53.0497 346.1201 0001530  70.7395 332.7173 15.73167077  3709
1 48433U 21040F   21177.16667824 -.00003315  00000-0 -19189-4 0  9993
2 48433  53.0497 344.8766 0001384  76.2113 303.9446 15.73216648  8185
1 48433U 21040F   21177.58334491 -.00066125  00000-0 -46962-3 0  9996
2 48433  53.0501 342.8067 0001265  77.1827 144.1899 15.73235993  3718
1 48433U 21040F   21177.91667824  .00077754  00000-0  55389-3 0  9993
2 48433  53.0501 341.1523 0001238  61.6762 248.6613 15.73171081  3703
1 48433U 21040F   21178.16668981 -.00040674  00000-0 -28628-3 0  9995
2 48433  53.0503 339.9086 0001206  69.2837 217.8195 15.73236943  8332
1 48433U 21040F   21178.58334491 -.00004884  00000-0 -30399-4 0  9999
2 48433  53.0502 337.8392 0001429  72.3079  55.9450 15.73192437  3719
1 48433U 21040F   21178.91667824  .00069289  00000-0  49456-3 0  9996
2 48433  53.0495 336.1847 0001449  63.3861 153.8007 15.73171173  3707
1 48433U 21040F   21179.16667824  .00004098  00000-0  33586-4 0  9999
2 48433  53.0497 334.9411 0001399  70.8658 123.0212 15.73211011  8497
1 48433U 21040F   21179.58335648 -.00086344  00000-0 -61620-3 0  9996
2 48433  53.0500 332.8717 0001545  73.4083 321.7446 15.73229241  3701
1 48433U 21040F   21179.91667824  .00063077  00000-0  45091-3 0  9997
2 48433  53.0498 331.2171 0001651  65.2408  58.8119 15.73172863  3704
1 48433U 21040F   21180.16667824  .00022876  00000-0  16694-3 0  9995
2 48433  53.0501 329.9735 0001544  70.4778  30.2768 15.73200270  3694
1 48433U 21040F   21180.16667824  .00022876  00000-0  16694-3 0  9995
2 48433  53.0501 329.9735 0001544  70.4778  30.2768 15.73200270  8655
1 48433U 21040F   21180.66668981 -.00108143  00000-0 -77347-3 0  9991
2 48433  53.0503 327.4911 0001607  63.7417 350.5204 15.73271789  8736
